{
  "type": "FeatureCollection",
  "features": [
    {
      "type": "Feature",
      "properties": {
        "norad_id": 34554,
        "name": "COSMOS 2251 DEB",
        "group": "cosmos-2251-debris",
        "lat": -34.353434060654386,
        "lon": 149.35930036084724,
        "alt_km": 786.9588564892883,
        "timestamp": "2025-12-02T08:59:33.109333+00:00",
        "meta_object_name": "COSMOS 2251 DEB",
        "meta_object_id": "1993-036UQ",
        "meta_epoch": "2025-12-01T09:20:45.697920",
        "meta_mean_motion": 14.37898426,
        "meta_eccentricity": 0.0022484,
        "meta_inclination": 74.0383,
        "meta_ra_of_asc_node": 319.8912,
        "meta_arg_of_pericenter": 25.0475,
        "meta_mean_anomaly": 132.7125,
        "meta_ephemeris_type": 0,
        "meta_classification_type": "U",
        "meta_norad_cat_id": 34554,
        "meta_element_set_no": 999,
        "meta_rev_at_epoch": 87592,
        "meta_bstar": 0.00040434985,
        "meta_mean_motion_dot": 1.198e-05,
        "meta_mean_motion_ddot": 0,
        "tle_line1": "1 34554U 93036UQ  25335.38941780  .00001198  00000+0  40435-3 0  9997",
        "tle_line2": "2 34554  74.0383 319.8912 0022484  25.0475 132.7125 14.37898426875928"
      },
      "geometry": {
        "type": "Point",
        "coordinates": [
          149.35930036084724,
          -34.353434060654386
        ]
      }
    },
    {
      "type": "Feature",
      "properties": {
        "norad_id": 34556,
        "name": "COSMOS 2251 DEB",
        "group": "cosmos-2251-debris",
        "lat": -21.589916825433008,
        "lon": 138.70377646053166,
        "alt_km": 647.5411173913508,
        "timestamp": "2025-12-02T08:59:33.109343+00:00",
        "meta_object_name": "COSMOS 2251 DEB",
        "meta_object_id": "1993-036US",
        "meta_epoch": "2025-12-01T22:27:40.520160",
        "meta_mean_motion": 14.77241629,
        "meta_eccentricity": 0.0009301,
        "meta_inclination": 74.015,
        "meta_ra_of_asc_node": 146.0785,
        "meta_arg_of_pericenter": 204.2468,
        "meta_mean_anomaly": 320.6588,
        "meta_ephemeris_type": 0,
        "meta_classification_type": "U",
        "meta_norad_cat_id": 34556,
        "meta_element_set_no": 999,
        "meta_rev_at_epoch": 88169,
        "meta_bstar": 0.0025039,
        "meta_mean_motion_dot": 0.00017778,
        "meta_mean_motion_ddot": 0,
        "tle_line1": "1 34556U 93036US  25335.93588565  .00017778  00000+0  25039-2 0  9991",
        "tle_line2": "2 34556  74.0150 146.0785 0009301 204.2468 320.6588 14.77241629881699"
      },
      "geometry": {
        "type": "Point",
        "coordinates": [
          138.70377646053166,
          -21.589916825433008
        ]
      }
    },
    {
      "type": "Feature",
      "properties": {
        "norad_id": 34560,
        "name": "COSMOS 2251 DEB",
        "group": "cosmos-2251-debris",
        "lat": 71.42897162018097,
        "lon": -139.13387062356577,
        "alt_km": 658.7885572027199,
        "timestamp": "2025-12-02T08:59:33.109353+00:00",
        "meta_object_name": "COSMOS 2251 DEB",
        "meta_object_id": "1993-036UW",
        "meta_epoch": "2025-12-01T23:31:39.635040",
        "meta_mean_motion": 14.71677456,
        "meta_eccentricity": 0.0015451,
        "meta_inclination": 74.0163,
        "meta_ra_of_asc_node": 163.0799,
        "meta_arg_of_pericenter": 243.63,
        "meta_mean_anomaly": 268.3545,
        "meta_ephemeris_type": 0,
        "meta_classification_type": "U",
        "meta_norad_cat_id": 34560,
        "meta_element_set_no": 999,
        "meta_rev_at_epoch": 88093,
        "meta_bstar": 0.0022458,
        "meta_mean_motion_dot": 0.00014018,
        "meta_mean_motion_ddot": 0,
        "tle_line1": "1 34560U 93036UW  25335.98031985  .00014018  00000+0  22458-2 0  9996",
        "tle_line2": "2 34560  74.0163 163.0799 0015451 243.6300 268.3545 14.71677456880939"
      },
      "geometry": {
        "type": "Point",
        "coordinates": [
          -139.13387062356577,
          71.42897162018097
        ]
      }
    },
    {
      "type": "Feature",
      "properties": {
        "norad_id": 34563,
        "name": "COSMOS 2251 DEB",
        "group": "cosmos-2251-debris",
        "lat": 67.38444821875729,
        "lon": -93.54688898446062,
        "alt_km": 734.6910461082362,
        "timestamp": "2025-12-02T08:59:33.109363+00:00",
        "meta_object_name": "COSMOS 2251 DEB",
        "meta_object_id": "1993-036UZ",
        "meta_epoch": "2025-12-01T19:42:09.660096",
        "meta_mean_motion": 14.46450669,
        "meta_eccentricity": 0.0013741,
        "meta_inclination": 74.0388,
        "meta_ra_of_asc_node": 224.0914,
        "meta_arg_of_pericenter": 318.5063,
        "meta_mean_anomaly": 112.859,
        "meta_ephemeris_type": 0,
        "meta_classification_type": "U",
        "meta_norad_cat_id": 34563,
        "meta_element_set_no": 999,
        "meta_rev_at_epoch": 88039,
        "meta_bstar": 0.000495,
        "meta_mean_motion_dot": 1.755e-05,
        "meta_mean_motion_ddot": 0,
        "tle_line1": "1 34563U 93036UZ  25335.82094514  .00001755  00000+0  49500-3 0  9991",
        "tle_line2": "2 34563  74.0388 224.0914 0013741 318.5063 112.8590 14.46450669880396"
      },
      "geometry": {
        "type": "Point",
        "coordinates": [
          -93.54688898446062,
          67.38444821875729
        ]
      }
    },
    {
      "type": "Feature",
      "properties": {
        "norad_id": 34564,
        "name": "COSMOS 2251 DEB",
        "group": "cosmos-2251-debris",
        "lat": 63.98221725226113,
        "lon": -66.89914197690145,
        "alt_km": 744.344257200517,
        "timestamp": "2025-12-02T08:59:33.109374+00:00",
        "meta_object_name": "COSMOS 2251 DEB",
        "meta_object_id": "1993-036VA",
        "meta_epoch": "2025-12-01T23:15:33.486048",
        "meta_mean_motion": 14.40658336,
        "meta_eccentricity": 0.0018574,
        "meta_inclination": 74.0328,
        "meta_ra_of_asc_node": 257.9373,
        "meta_arg_of_pericenter": 3.9385,
        "meta_mean_anomaly": 122.6047,
        "meta_ephemeris_type": 0,
        "meta_classification_type": "U",
        "meta_norad_cat_id": 34564,
        "meta_element_set_no": 999,
        "meta_rev_at_epoch": 87851,
        "meta_bstar": 0.00032503,
        "meta_mean_motion_dot": 1.013e-05,
        "meta_mean_motion_ddot": 0,
        "tle_line1": "1 34564U 93036VA  25335.96913757  .00001013  00000+0  32503-3 0  9998",
        "tle_line2": "2 34564  74.0328 257.9373 0018574   3.9385 122.6047 14.40658336878518"
      },
      "geometry": {
        "type": "Point",
        "coordinates": [
          -66.89914197690145,
          63.98221725226113
        ]
      }
    },
    {
      "type": "Feature",
      "properties": {
        "norad_id": 34567,
        "name": "COSMOS 2251 DEB",
        "group": "cosmos-2251-debris",
        "lat": 16.353596277706295,
        "lon": -179.7480330282266,
        "alt_km": 842.8424868851962,
        "timestamp": "2025-12-02T08:59:33.109384+00:00",
        "meta_object_name": "COSMOS 2251 DEB",
        "meta_object_id": "1993-036VD",
        "meta_epoch": "2025-12-02T01:03:00.429408",
        "meta_mean_motion": 14.23999079,
        "meta_eccentricity": 0.0074701,
        "meta_inclination": 74.04,
        "meta_ra_of_asc_node": 176.0304,
        "meta_arg_of_pericenter": 252.5589,
        "meta_mean_anomaly": 228.0525,
        "meta_ephemeris_type": 0,
        "meta_classification_type": "U",
        "meta_norad_cat_id": 34567,
        "meta_element_set_no": 999,
        "meta_rev_at_epoch": 86972,
        "meta_bstar": 0.00022992,
        "meta_mean_motion_dot": 5.17e-06,
        "meta_mean_motion_ddot": 0,
        "tle_line1": "1 34567U 93036VD  25336.04375497  .00000517  00000+0  22992-3 0  9993",
        "tle_line2": "2 34567  74.0400 176.0304 0074701 252.5589 228.0525 14.23999079869727"
      },
      "geometry": {
        "type": "Point",
        "coordinates": [
          -179.7480330282266,
          16.353596277706295
        ]
      }
    },
    {
      "type": "Feature",
      "properties": {
        "norad_id": 34569,
        "name": "COSMOS 2251 DEB",
        "group": "cosmos-2251-debris",
        "lat": 21.597181431444117,
        "lon": 30.350493921002847,
        "alt_km": 845.3676427173359,
        "timestamp": "2025-12-02T08:59:33.109394+00:00",
        "meta_object_name": "COSMOS 2251 DEB",
        "meta_object_id": "1993-036VF",
        "meta_epoch": "2025-12-02T02:05:09.434400",
        "meta_mean_motion": 14.2470228,
        "meta_eccentricity": 0.0156813,
        "meta_inclination": 73.9904,
        "meta_ra_of_asc_node": 217.3969,
        "meta_arg_of_pericenter": 48.2546,
        "meta_mean_anomaly": 72.0417,
        "meta_ephemeris_type": 0,
        "meta_classification_type": "U",
        "meta_norad_cat_id": 34569,
        "meta_element_set_no": 999,
        "meta_rev_at_epoch": 86816,
        "meta_bstar": 0.0006604,
        "meta_mean_motion_dot": 1.721e-05,
        "meta_mean_motion_ddot": 0,
        "tle_line1": "1 34569U 93036VF  25336.08691475  .00001721  00000+0  66040-3 0  9996",
        "tle_line2": "2 34569  73.9904 217.3969 0156813  48.2546  72.0417 14.24702280868161"
      },
      "geometry": {
        "type": "Point",
        "coordinates": [
          30.350493921002847,
          21.597181431444117
        ]
      }
    }
  ]
}